IRIDIUM 26              
1 24903U 97043A   26015.11517714  .00000294  00000+0  91879-4 0  9994
2 24903  86.3944  21.5283 0002413  91.0959 269.0514 14.37357811487183
IRIDIUM 22              
1 24907U 97043E   26015.01253708  .00000248  00000+0  78427-4 0  9990
2 24907  86.3945  25.2932 0002261  87.2890 272.8565 14.36147667487174
DUMMY MASS 1            
1 24925U 97048A   26015.11185181  .00000267  00000+0  26514-4 0  9996
2 24925  86.3318  37.2553 0008878 108.3790 251.8401 14.87213693536624
DUMMY MASS 2            
1 24926U 97048B   26015.10942337  .00000266  00000+0  26569-4 0  9999
2 24926  86.3318  38.9035 0009415 118.1640 242.0537 14.86964071536397
IRIDIUM 29              
1 24944U 97051A   26015.09739848  .00000243  00000+0  75781-4 0  9997
2 24944  86.3923  54.9309 0002072  89.0692 271.0743 14.36690898483699
IRIDIUM 33              
1 24946U 97051C   26015.10627198  .00000221  00000+0  70714-4 0  9992
2 24946  86.3838  54.2094 0009996 103.3024 256.9288 14.35062502483130
IRIDIUM 28              
1 24948U 97051E   26015.14634818  .00000256  00000+0  78752-4 0  9993
2 24948  86.3928  52.3051 0002754  94.9460 265.2052 14.37591919484299
IRIDIUM 36              
1 24967U 97056C   26015.14625482  .00000270  00000+0  83026-4 0  9992
2 24967  86.3943  83.9363 0002432  91.4981 268.6496 14.37817625482670
